norad_id,name,regime,epoch,line1,line2,inclination,eccentricity,mean_motion,raan,arg_pericenter,mean_anomaly
20083,RADUGA 1-1,EGO,11271.53594813,1 20083U 89048A   11271.53594813 -.00000179 +00000-0 +10000-3 0 01277\,2 20083 014.0115 024.4696 0021879 009.7898 350.2597 00.98710120078213,14.0115,0.0021879,0.9871012,24.4696,9.7898,350.2597
20083,RADUGA 1-1,EGO,11272.54896258,1 20083U 89048A   11272.54896258 -.00000208  00000-0  10000-3 0  1258\,2 20083 014.0128 024.4593 0021861 009.8262 350.2186 00.98710402 78228,14.0128,0.0021861,0.98710402,24.4593,9.8262,350.2186
20083,RADUGA 1-1,EGO,11273.56198020,1 20083U 89048A   11273.56198020 -.00000234 +00000-0 +10000-3 0 01263\,2 20083 014.0142 024.4490 0021856 009.8957 350.1464 00.98710611078236,14.0142,0.0021856,0.98710611,24.449,9.8957,350.1464
20083,RADUGA 1-1,EGO,11273.56198203,1 20083U 89048A   11273.56198203 -.00000234 +00000-0 +10000-3 0 01277\,2 20083 014.0146 024.4488 0021914 010.2440 349.7989 00.98710588078234,14.0146,0.0021914,0.98710588,24.4488,10.244,349.7989
20083,RADUGA 1-1,EGO,11274.57500817,1 20083U 89048A   11274.57500817 -.00000254  00000-0  10000-3 0  1268\,2 20083 014.0159 024.4390 0021916 010.2828 349.7609 00.98710719 78248,14.0159,0.0021916,0.98710719,24.439,10.2828,349.7609
20083,RADUGA 1-1,EGO,11278.62711651,1 20083U 89048A   11278.62711651 -.00000274  00000-0  10000-3 0  1271\,2 20083 014.0214 024.3977 0022017 010.7240 349.3260 00.98710299 78282,14.0214,0.0022017,0.98710299,24.3977,10.724,349.326
20083,RADUGA 1-1,EGO,11278.62712114,1 20083U 89048A   11278.62712114 -.00000274 +00000-0 +10000-3 0 01287\,2 20083 014.0214 024.3978 0022041 010.8278 349.2238 00.98710295078282,14.0214,0.0022041,0.98710295,24.3978,10.8278,349.2238
20083,RADUGA 1-1,EGO,11279.64014830,1 20083U 89048A   11279.64014830 -.00000262 +00000-0 +10000-3 0 01298\,2 20083 014.0228 024.3875 0022085 010.9001 349.1508 00.98709962078295,14.0228,0.0022085,0.98709962,24.3875,10.9001,349.1508
20083,RADUGA 1-1,EGO,11280.65317574,1 20083U 89048A   11280.65317574 -.00000242  00000-0  10000-3 0  1289\,2 20083 014.0241 024.3774 0021926 010.7070 349.3403 00.98709557 78303,14.0241,0.0021926,0.98709557,24.3774,10.707,349.3403
20083,RADUGA 1-1,EGO,11281.66620609,1 20083U 89048A   11281.66620609 -.00000219 +00000-0 +10000-3 0 01304\,2 20083 014.0255 024.3673 0021793 010.5908 349.4531 00.98709108078312,14.0255,0.0021793,0.98709108,24.3673,10.5908,349.4531
20083,RADUGA 1-1,EGO,11283.69227349,1 20083U 89048A   11283.69227349 -.00000159  00000-0  10000-3 0  1294\,2 20083 014.0282 024.3468 0021758 010.6501 349.3869 00.98708121 78334,14.0282,0.0021758,0.98708121,24.3468,10.6501,349.3869
20083,RADUGA 1-1,EGO,11284.70531670,1 20083U 89048A   11284.70531670 -.00000126 +00000-0 +10000-3 0 01308\,2 20083 014.0295 024.3365 0021690 010.5505 349.4828 00.98707622078344,14.0295,0.002169,0.98707622,24.3365,10.5505,349.4828
20083,RADUGA 1-1,EGO,11285.71836920,1 20083U 89048A   11285.71836920 -.00000093  00000-0  10000-3 0  1310\,2 20083 014.0309 024.3264 0021684 010.5638 349.4683 00.98707159 78353,14.0309,0.0021684,0.98707159,24.3264,10.5638,349.4683
20083,RADUGA 1-1,EGO,11285.71840360,1 20083U 89048A   11285.71840360  .00000000  00000-0  10000-3 0  1309\,2 20083 014.0311 024.3273 0021957 010.3334 349.7009 00.98703366 78351,14.0311,0.0021957,0.98703366,24.3273,10.3334,349.7009
20083,RADUGA 1-1,EGO,11286.73142789,1 20083U 89048A   11286.73142789 -.00000062 +00000-0 +10000-3 0 01334\,2 20083 014.0323 024.3163 0021674 010.5820 349.4502 00.98706754078360,14.0323,0.0021674,0.98706754,24.3163,10.582,349.4502
20083,RADUGA 1-1,EGO,11287.74449543,1 20083U 89048A   11287.74449543 -.00000033  00000-0  10000-3 0  1321\,2 20083 014.0336 024.3060 0021627 010.6071 349.4272 00.98706417 78378,14.0336,0.0021627,0.98706417,24.306,10.6071,349.4272
20083,RADUGA 1-1,EGO,11288.75756777,1 20083U 89048A   11288.75756777 -.00000008 +00000-0 +10000-3 0 01336\,2 20083 014.0350 024.2958 0021612 010.5912 349.4452 00.98706160078382,14.035,0.0021612,0.9870616,24.2958,10.5912,349.4452
20083,RADUGA 1-1,EGO,11289.77064598,1 20083U 89048A   11289.77064598  .00000013  00000-0  10000-3 0  1337\,2 20083 014.0363 024.2860 0021588 010.4984 349.5415 00.98706002 78394,14.0363,0.0021588,0.98706002,24.286,10.4984,349.5415
20083,RADUGA 1-1,EGO,11292.80988014,1 20083U 89048A   11292.80988014  .00000039  00000-0  10000-3 0  1342\,2 20083 014.0404 024.2551 0021603 010.6366 349.4110 00.98706098 78421,14.0404,0.0021603,0.98706098,24.2551,10.6366,349.411
20083,RADUGA 1-1,EGO,11297.87512601,1 20083U 89048A   11297.87512601 -.00000037  00000-0  10000-3 0  1359\,2 20083 014.0470 024.2037 0021594 010.5294 349.4938 00.98707867 78479,14.047,0.0021594,0.98707867,24.2037,10.5294,349.4938
20083,RADUGA 1-1,EGO,11297.87513070,1 20083U 89048A   11297.87513070 -.00000037 +00000-0 +10000-3 0 01361\,2 20083 014.0470 024.2041 0021586 010.3275 349.6960 00.98707858078479,14.047,0.0021586,0.98707858,24.2041,10.3275,349.696
20083,RADUGA 1-1,EGO,11299.90119540,1 20083U 89048A   11299.90119540 -.00000094 +00000-0 +10000-3 0 01364\,2 20083 014.0497 024.1820 0021873 010.6883 349.3217 00.98708709078499,14.0497,0.0021873,0.98708709,24.182,10.6883,349.3217
20083,RADUGA 1-1,EGO,11301.92728348,1 20083U 89048A   11301.92728348 -.00000152  00000-0  10000-3 0  1378\,2 20083 014.0524 024.1633 0021624 010.1812 349.8324 00.98709506 78516,14.0524,0.0021624,0.98709506,24.1633,10.1812,349.8324
20083,RADUGA 1-1,EGO,11302.94031552,1 20083U 89048A   11302.94031552 -.00000178  00000-0  10000-3 0  1384\,2 20083 014.0538 024.1522 0021776 009.9474 350.0595 00.98709747 78528,14.0538,0.0021776,0.98709747,24.1522,9.9474,350.0595
20083,RADUGA 1-1,EGO,11303.95337008,1 20083U 89048A   11303.95337008 -.00000199 +00000-0 +10000-3 0 01395\,2 20083 014.0551 024.1422 0021831 009.9014 350.1116 00.98709956078537,14.0551,0.0021831,0.98709956,24.1422,9.9014,350.1116
20083,RADUGA 1-1,EGO,11305.97944346,1 20083U 89048A   11305.97944346 -.00000229  00000-0  10000-3 0  1392\,2 20083 014.0580 024.1222 0021797 009.6050 350.4105 00.98710155 78551,14.058,0.0021797,0.98710155,24.1222,9.605,350.4105
20083,RADUGA 1-1,EGO,11306.99247648,1 20083U 89048A   11306.99247648 -.00000236 +00000-0 +10000-3 0 01406\,2 20083 014.0594 024.1112 0021882 009.8547 350.1620 00.98710128078562,14.0594,0.0021882,0.98710128,24.1112,9.8547,350.162
20083,RADUGA 1-1,EGO,11311.04458187,1 20083U 89048A   11311.04458187 -.00000216 +00000-0 +10000-3 0 01408\,2 20083 014.0651 024.0703 0022050 009.7832 350.2279 00.98709393078603,14.0651,0.002205,0.98709393,24.0703,9.7832,350.2279
20083,RADUGA 1-1,EGO,11312.05761058,1 20083U 89048A   11312.05761058 -.00000201 +00000-0 +10000-3 0 01419\,2 20083 014.0667 024.0599 0022004 009.6805 350.3287 00.98709091078617,14.0667,0.0022004,0.98709091,24.0599,9.6805,350.3287
20083,RADUGA 1-1,EGO,11313.07064329,1 20083U 89048A   11313.07064329 -.00000183 +00000-0 +10000-3 0 01429\,2 20083 014.0684 024.0498 0022104 009.0260 350.9785 00.98708752078627,14.0684,0.0022104,0.98708752,24.0498,9.026,350.9785
20083,RADUGA 1-1,EGO,11313.07064363,1 20083U 89048A   11313.07064363 -.00000183 +00000-0 +10000-3 0 01438\,2 20083 014.0684 024.0498 0022070 009.0419 350.9642 00.98708774078621,14.0684,0.002207,0.98708774,24.0498,9.0419,350.9642
20083,RADUGA 1-1,EGO,11313.07064583,1 20083U 89048A   11313.07064583 -.00000183  00000-0  10000-3 0  1410\,2 20083 014.0683 024.0496 0022119 009.1939 350.8123 00.98708752 78629,14.0683,0.0022119,0.98708752,24.0496,9.1939,350.8123
20083,RADUGA 1-1,EGO,11314.08368683,1 20083U 89048A   11314.08368683 -.00000162 +00000-0 +10000-3 0 01440\,2 20083 014.0697 024.0396 0022045 009.0586 350.9479 00.98708418078633,14.0697,0.0022045,0.98708418,24.0396,9.0586,350.9479
20083,RADUGA 1-1,EGO,11318.13594385,1 20083U 89048A   11318.13594385 -.00000068  00000-0  10000-3 0  1423\,2 20083 014.0750 023.9984 0022020 009.2684 350.7555 00.98707063 78670,14.075,0.002202,0.98707063,23.9984,9.2684,350.7555
20083,RADUGA 1-1,EGO,11319.14901592,1 20083U 89048A   11319.14901592 -.00000045 +00000-0 +10000-3 0 01433\,2 20083 014.0763 023.9884 0022040 009.1472 350.8820 00.98706820078686,14.0763,0.002204,0.9870682,23.9884,9.1472,350.882
20083,RADUGA 1-1,EGO,11320.16207711,1 20083U 89048A   11320.16207711 -.00000024  00000-0  10000-3 0  1436\,2 20083 014.0778 023.9795 0021896 008.8979 351.1320 00.98706634 78692,14.0778,0.0021896,0.98706634,23.9795,8.8979,351.132
20083,RADUGA 1-1,EGO,11321.17514193,1 20083U 89048A   11321.17514193 -.00000006 +00000-0 +10000-3 0 01444\,2 20083 014.0791 023.9693 0021910 008.7525 351.2769 00.98706479078704,14.0791,0.002191,0.98706479,23.9693,8.7525,351.2769
20083,RADUGA 1-1,EGO,11322.18820212,1 20083U 89048A   11322.18820212 +.00000009 +00000-0 +10000-3 0 01451\,2 20083 014.0805 023.9593 0021957 008.7646 351.2625 00.98706394078712,14.0805,0.0021957,0.98706394,23.9593,8.7646,351.2625
20083,RADUGA 1-1,EGO,11322.18820319,1 20083U 89048A   11322.18820319  .00000009  00000-0  10000-3 0  1448\,2 20083 014.0804 023.9589 0021927 008.8211 351.2072 00.98706397 78711,14.0804,0.0021927,0.98706397,23.9589,8.8211,351.2072
20083,RADUGA 1-1,EGO,11324.21431150,1 20083U 89048A   11324.21431150  .00000025  00000-0  10000-3 0  1454\,2 20083 014.0832 023.9397 0021959 008.4174 351.5983 00.98706406 78735,14.0832,0.0021959,0.98706406,23.9397,8.4174,351.5983
20083,RADUGA 1-1,EGO,11325.22736480,1 20083U 89048A   11325.22736480 +.00000026 +00000-0 +10000-3 0 01462\,2 20083 014.0845 023.9295 0021964 008.7762 351.2343 00.98706507078748,14.0845,0.0021964,0.98706507,23.9295,8.7762,351.2343
20083,RADUGA 1-1,EGO,11327.25347586,1 20083U 89048A   11327.25347586  .00000012  00000-0  10000-3 0  1467\,2 20083 014.0871 023.9090 0021999 008.8731 351.1307 00.98706926 78761,14.0871,0.0021999,0.98706926,23.909,8.8731,351.1307
20083,RADUGA 1-1,EGO,11327.25348070,1 20083U 89048A   11327.25348070 +.00000012 +00000-0 +10000-3 0 01477\,2 20083 014.0873 023.9095 0021896 009.0419 350.9634 00.98706919078762,14.0873,0.0021896,0.98706919,23.9095,9.0419,350.9634
